1 32243U 99025CWR 18241.19295252  .00000334  00000-0  21104-3 0  9991
2 32243  98.3162 143.6463 0322987 344.5711  14.5777 13.86957881565775
1 32245U 99025CWT 18241.72705280  .00000755  00000-0  19185-3 0  9992
2 32245  98.4997 337.1252 0155663 197.7955 161.7749 14.46809097587166
1 32303U 99025CWU 18240.54652762 +.00000919 +00000-0 +59603-3 0  9993
2 32303 097.8478 356.6381 0125109 089.6819 271.8684 14.00825229247919
1 32304U 99025CWV 18236.28418356  .00000227  00000-0  96491-4 0  9998
2 32304  99.4335 262.2821 0064840  58.7038 302.0471 14.34420746579275
1 32305U 99025CWW 18237.71543556  .00000774  00000-0  47189-3 0  9995
2 32305  98.0049  49.2404 0219291 152.5454 208.7501 13.97127288550469
1 32308U 99025CWZ 18241.98088161  .00000403  00000-0  31237-3 0  9994
2 32308  97.7745 307.7956 0121575  76.3190 285.1476 13.93591892549495
1 32311U 99025CXC 18235.78215890 +.00000434 +00000-0 +70329-3 0  9999
2 32311 101.7508 081.6823 0426029 236.1107 119.8792 13.24483215247390
1 32312U 99025CXD 18178.59522054  .00000568  00000-0  46170-3 0  9993
2 32312  98.7648 309.2774 0136812 254.0450 166.6643 13.89668919568795
1 32313U 99025CXE 18234.38417334  .00000359  00000-0  27460-3 0  9997
2 32313  99.1910 285.3635 0148062 197.0631 162.5522 13.94893978562695
1 32314U 99025CXF 18240.45811296  .00000576  00000-0  11553-3 0  9995
2 32314  98.8829 123.0507 0224331   2.8154 357.4244 14.51587296586176
1 32315U 99025CXG 18240.70196901 -.00000007  00000-0  47316-4 0  9990
2 32315 100.8290  44.4103 0230745 163.7856 197.0826 13.65354431561728
1 32316U 99025CXH 18242.43978073  .00000454  00000-0  18378-3 0  9991
2 32316  99.5217 308.2056 0048281 112.4342 305.3889 14.32603363580947
1 32317U 99025CXJ 18236.20689708  .00000802  00000-0  30266-3 0  9991
2 32317  97.9831 223.2826 0153740  86.2851 275.5896 14.27327714573319
1 32318U 99025CXK 18241.48138733  .00038705  00000-0  19117-2 0  9999
2 32318  97.3198 133.1962 0011223 226.8119 133.2178 15.17701884590572
1 32319U 99025CXL 18241.21655371  .00001471  00000-0  16622-3 0  9992
2 32319  99.1470  37.9727 0121943 314.5105  44.6190 14.83339831596988
1 32320U 99025CXM 18236.91691815 +.00000383 +00000-0 +18804-3 0  9993
2 32320 100.3736 285.2938 0066622 209.5664 150.1735 14.24073262241306
1 32322U 99025CXP 18242.15134957  .00000047  00000-0  10614-3 0  9995
2 32322  98.3567 214.5934 0430323 304.0330  52.0631 13.30141214540149
1 32323U 99025CXQ 18240.71189652  .00000814  00000-0  72385-3 0  9993
2 32323  98.5637 215.1186 0180027 281.6453  76.4547 13.80315515559435
1 32324U 99025CXR 18239.00515165 -.00000073 +00000-0 -14912-4 0  9998
2 32324 099.5275 150.6526 0053227 128.3018 232.2952 14.05266854265414
1 32325U 99025CXS 18219.67086893 +.00000815 +00000-0 +27076-3 0  9997
2 32325 098.9825 022.6577 0069415 057.3614 303.4245 14.39243113579630
1 32326U 99025CXT 18241.07845520  .00000187  00000-0  16055-3 0  9994
2 32326  98.4506 104.3132 0399692  18.7852 342.7575 13.64628920553910
1 32329U 99025CXW 18195.63196381 +.00000526 +00000-0 +27486-3 0  9998
2 32329 099.9561 345.3832 0054329 256.8321 102.6785 14.18854555574391
1 32330U 99025CXX 18241.83352952  .00000248  00000-0  17736-3 0  9990
2 32330  98.0465  93.4164 0188308  93.1260 269.1469 13.96045995580035
1 32331U 99025CXY 18241.36724609  .00001368  00000-0  68042-3 0  9991
2 32331  99.2052  24.2338 0043851 229.8131 129.9201 14.18335850572411
1 32332U 99025CXZ 18226.32656381  .00000332  00000-0  22165-3 0  9998
2 32332  99.3595 260.5115 0313288 341.6751  17.3318 13.86498404559589
1 32333U 99025CYA 18231.52005521 +.00000892 +00000-0 +65034-3 0  9994
2 32333 097.8833 334.1950 0129405 192.4010 167.3961 13.94266814263285
1 32334U 99025CYB 18241.87028083 -.00000049  00000-0 -20944-5 0  9991
2 32334  99.2710 211.0874 0069430   0.9499 359.1784 13.98543862567050
1 32336U 99025CYD 11116.43215084 +.00002109 +00000-0 +67324-3 0  9996
2 32336 098.9945 205.8822 0139046 032.0357 328.7671 14.35469826202863
1 32337U 99025CYE 18240.46603885  .00000147  00000-0  22133-3 0  9994
2 32337  99.2964 320.2182 0324206  14.9204 346.1227 13.47597124543857
1 32338U 99025CYF 18239.10824011  .00000715  00000-0  27468-3 0  9997
2 32338  98.8393 357.2206 0071166 233.2693 126.1940 14.32217719576733
1 32339U 99025CYG 18242.34103237  .00000583  00000-0  25767-3 0  9991
2 32339  98.8006 287.9179 0047492 313.2210  46.5008 14.26495837567666
1 32340U 99025CYH 18241.45386583  .00000740  00000-0  26192-3 0  9999
2 32340  99.0323  62.0564 0064708 294.7200  64.7258 14.36620243587599
1 32342U 99025CYK 18242.02473630  .00000003  00000-0  25723-4 0  9997
2 32342  98.9022 269.3902 0007506 356.2310  75.6920 14.12491434564046
1 32343U 99025CYL 18240.87342657 +.00000144 +00000-0 +84539-4 0  9999
2 32343 098.6919 277.4990 0158733 229.7473 128.9729 14.15898945270021
1 32344U 99025CYM 18240.48035026 +.00003062 +00000-0 +23523-3 0  9993
2 32344 100.2838 334.3616 0121502 264.6821 094.0519 14.97304407609457
1 32345U 99025CYN 11269.62775281 +.00012723 +00000-0 +35452-2 0  9995
2 32345 098.4148 204.8029 0254989 039.5651 322.3942 14.29038528223053
1 32346U 99025CYP 18233.88711648 +.00000516 +00000-0 +43668-3 0  9995
2 32346 097.8315 274.9973 0154815 322.5007 036.5432 13.85823215227997
1 32350U 99025CYT 18242.38101297  .00000220  00000-0  52908-4 0  9998
2 32350  98.5900 291.8060 0321548  28.1118 333.7021 14.36384202592172
1 32351U 99025CYU 18237.41751784  .00000639  00000-0  41207-4 0  9993
2 32351  99.0052 103.0089 0142855 252.6395 105.9160 15.05471062602415
1 32352U 99025CYV 18241.67706346  .00000103  00000-0  46884-4 0  9993
2 32352  98.9113  37.5422 0131710 114.2931 247.2076 14.36849019583644
1 32353U 99025CYW 18238.85933777  .00000385  00000-0  32915-3 0  9991
2 32353  98.9876 109.2043 0145557 287.2879  71.2398 13.88276618563750
1 32354U 99025CYX 18241.10466511  .00001196  00000-0  60349-3 0  9994
2 32354 102.9283 200.9240 0207381 145.2592 216.2307 14.08961279573575
1 32355U 99025CYY 18239.91191354 +.00000836 +00000-0 +32129-3 0  9996
2 32355 100.3886 271.8605 0140828 049.8185 070.2674 14.28594963265654
1 32356U 99025CYZ 18240.46425020  .00000595  00000-0  50736-3 0  9995
2 32356 102.5094 224.7127 0146232 251.7744 262.4120 13.88837716570051
1 32357U 99025CZA 18242.56347517  .00000260  00000-0  18437-3 0  9994
2 32357  98.9047 146.6372 0567193 197.0560 290.6981 13.46748903548879
1 32360U 99025CZD 18242.14703211 -.00000111  00000-0 -56293-4 0  9999
2 32360  98.1305  13.5092 0282967 112.5562 250.5800 13.79674056563033
1 32361U 99025CZE 18242.38309696  .00000799  00000-0  34429-3 0  9991
2 32361  98.8167 197.4454 0070189 271.6414 241.3294 14.26095451585099
1 32362U 99025CZF 18241.63333591  .00001235  00000-0  14173-2 0  9999
2 32362  99.7897 184.2594 0319260 101.9186 261.7928 13.51787499550781
1 32363U 99025CZG 18241.83105106 +.00001434 +00000-0 +15156-3 0  9995
2 32363 098.3623 012.5823 0227941 118.4111 244.0276 14.73733313572726
1 32364U 99025CZH 18240.82691177 +.00001096 +00000-0 +71414-3 0  9995
2 32364 098.3409 252.9064 0145359 164.0591 196.5221 13.99198264263531
1 32366U 99025CZK 18225.34157116 +.00000284 +00000-0 +17604-3 0  9996
2 32366 096.7709 261.3900 0165687 279.7237 078.5258 14.03643225555528
1 32368U 99025CZM 18241.04541304 +.00001130 +00000-0 +64051-3 0  9998
2 32368 097.8635 328.1382 0298068 245.0016 111.9921 13.91616655221653
1 32369U 99025CZN 12073.10414363 +.00003594 +00000-0 +24864-2 0  9990
2 32369 098.3789 181.2688 0427152 263.4938 091.8139 13.63326831221124
1 32370U 99025CZP 18242.23853458  .00007781  00000-0  33497-3 0  9997
2 32370  99.0628  49.3517 0102273 210.1320 149.4002 15.18307977600064
1 32371U 99025CZQ 18241.91438264  .00001821  00000-0  37445-3 0  9992
2 32371  99.2775 275.3256 0107459 215.2207 144.1855 14.58527318587318
1 32372U 99025CZR 18239.47896390  .00000680  00000-0  82048-3 0  9990
2 32372  97.3186 126.1346 0482192  68.6891 296.5002 13.27995783543707
1 32406U 99025CZS 18242.44956383  .00006211  00000-0  17063-3 0  9999
2 32406  98.3803  61.4708 0126163  33.9863 326.9375 15.29967706602347
1 32407U 99025CZT 18242.35879825  .00002957  00000-0  14611-3 0  9994
2 32407  98.5031  82.2553 0205767  91.0095 271.4708 15.02154043595531
1 32408U 99025CZU 14157.53128552 +.00001623 +00000-0 +33684-3 0  9990
2 32408 098.8083 271.7243 0270850 209.0429 151.4088 14.41217124364286
1 32409U 99025CZV 18241.61722432  .00000719  00000-0  23094-3 0  9994
2 32409  99.5603  15.2537 0074886  60.2288   4.5016 14.41405121579936
1 32410U 99025CZW 18202.04464611 +.00011148 +00000-0 +79388-3 0  9997
2 32410 097.8333 055.8068 0082390 238.8039 120.5594 15.02038992000018
1 32411U 99025CZX 18240.44351951  .00000290  00000-0  18437-3 0  9990
2 32411  98.4128 320.5494 0130307  48.8077 312.4243 14.06363675576705
1 32412U 99025CZY 09177.68115178 +.00001109 +00000-0 +31886-3 0  9998
2 32412 098.2446 128.3054 0256544 261.6721 094.8246 14.29378516088309
1 32414U 99025DAA 18242.34965543  .00000558  00000-0  35425-3 0  9995
2 32414  99.0586 285.5264 0051116 290.7953 126.4227 14.07511538570959
1 32416U 99025DAC 18239.14753766  .00000275  00000-0  35104-3 0  9993
2 32416 100.7824   0.3712 0247201 291.7771 192.8189 13.61702862551200
1 32418U 99025DAE 18242.20801337  .00000987  00000-0  74744-3 0  9997
2 32418  98.2143  42.0750 0285587 182.2217 177.7689 13.78334754544095
1 32419U 99025DAF 18241.89780118 -.00000305  00000-0 -11323-3 0  9995
2 32419  97.9158 111.7262 0300534 138.9865 223.4333 14.04289978571336
1 32422U 99025DAJ 18242.15567384  .00000102  00000-0  70404-4 0  9996
2 32422  97.8462   9.7270 0307884 291.1357  65.7159 13.94764406551754
1 32425U 99025DAM 18239.95562413  .00000086  00000-0  47618-4 0  9993
2 32425  96.7150 294.0348 0247716   7.0154 353.4386 14.11288445556376
1 32426U 99025DAN 11284.47345555 +.00002401 +00000-0 +24138-2 0  9993
2 32426 098.2688 030.8916 0302044 225.3839 132.3573 13.60063636207829
1 32427U 99025DAP 17237.77311365 +.00010786 +00000-0 +89727-3 0  9994
2 32427 096.7643 231.7554 0027771 266.4936 093.3112 14.98531309166456
